M.P.E.C. 2022-B35                              Issued 2022 January 25, 22:07 UT

     The Minor Planet Electronic Circulars contain information on unusual
         minor planets and routine data on comets.  They are published
    on behalf of Division F of the International Astronomical Union by the
          Minor Planet Center, Smithsonian Astrophysical Observatory,
                          Cambridge, MA 02138, U.S.A.

             Prepared using the Tamkin Foundation Computer Network

                              MPC@CFA.HARVARD.EDU
            URL https://www.minorplanetcenter.net/    ISSN 1523-6714

                                2022 AB8                                 Observations:
     K22A08B  C2021 11 29.49694 07 20 43.47 +17 59 13.3          20.9 GVEB035G96
     K22A08B  C2021 11 29.50172 07 20 43.14 +17 59 07.8          21.7 GVEB035G96
     K22A08B* C2022 01 08.27748806 04 39.702+01 17 04.32         20.40wUEB035F52
     K22A08B  C2022 01 08.28908606 04 38.086+01 16 44.95         20.64wUEB035F52
     K22A08B  C2022 01 08.30067506 04 36.464+01 16 25.68         20.50wUEB035F52
     K22A08B  C2022 01 08.31222206 04 34.845+01 16 06.46         20.63wUEB035F52
     K22A08B  C2022 01 08.41502206 04 20.417+01 13 14.80         20.24GVEB035F52
     K22A08B  C2022 01 08.41565106 04 20.330+01 13 13.77         20.20GVEB035F52
     K22A08B  C2022 01 08.51464 06 04 06.86 +01 10 27.2          19.8 RrEB035P93
     K22A08B  C2022 01 08.51559 06 04 06.74 +01 10 25.7          20.0 RrEB035P93
     K22A08B  C2022 01 08.51939 06 04 06.20 +01 10 19.1          20.0 RrEB035P93
     K22A08B  C2022 01 08.52035 06 04 06.10 +01 10 17.8          20.2 RrEB035P93
     K22A08B KC2022 01 08.82999906 03 23.36 +01 01 41.4          20.3 GVEB035L01
     K22A08B IC2022 01 08.83234006 03 23.04 +01 01 38.4          20.1 GVEB035L01
     K22A08B IC2022 01 08.83468106 03 22.72 +01 01 34.6          20.4 GVEB035L01
     K22A08B KC2022 01 08.83702206 03 22.38 +01 01 29.7          20.5 GVEB035L01
     K22A08B KC2022 01 08.83936306 03 22.06 +01 01 26.0          20.3 GVEB035L01
     K22A08B KC2022 01 09.21960 06 02 29.65 +00 50 54.9          20.6 RoEB035691
     K22A08B KC2022 01 09.22548 06 02 28.85 +00 50 45.5                oEB035691
     K22A08B KC2022 01 09.23136 06 02 28.04 +00 50 35.5                oEB035691
     K22A08B  C2022 01 09.46338306 01 55.882+00 44 11.45         20.09GVEB035F52
     K22A08B  C2022 01 09.46401306 01 55.793+00 44 10.39         20.26GVEB035F52
     K22A08B KC2022 01 10.11468 06 00 26.77 +00 26 13.0          20.0 RqEB035734
     K22A08B KC2022 01 10.12094 06 00 25.95 +00 26 02.1          20.7 RqEB035734
     K22A08B KC2022 01 10.12723 06 00 25.06 +00 25 52.0          20.2 RqEB035734
     K22A08B  C2022 01 10.18637806 00 16.99 +00 24 14.5          20.5 GVEB035654
     K22A08B  C2022 01 10.24387806 00 09.00 +00 22 39.3          20.4 GVEB035654
     K22A08B  C2022 01 10.30851906 00 00.00 +00 20 52.9          20.7 GVEB035654
     K22A08B KC2022 01 11.10984005 58 10.80 -00 01 03.7          19.8 GXEB035858
     K22A08B KC2022 01 11.12015705 58 09.35 -00 01 20.6          19.5 GXEB035858
     K22A08B KC2022 01 11.89920 05 56 23.25 -00 22 34.0                XEB035I93
     K22A08B KC2022 01 11.90846 05 56 21.98 -00 22 48.2          19.8 GXEB035I93
     K22A08B 1B2022 01 11.91670405 56 20.79 -00 22 54.9          19.6 GVEB035L80
     K22A08B KC2022 01 11.91772 05 56 20.72 -00 23 04.1          19.3 GXEB035I93
     K22A08B 1B2022 01 11.93928205 56 17.62 -00 23 31.5          19.4 GVEB035L80
     K22A08B KC2022 01 11.95392 05 56 15.69 -00 24 02.9                VEB035204
     K22A08B KC2022 01 11.97835 05 56 12.37 -00 24 43.2          20.5 GVEB035204
     K22A08B KC2022 01 11.98891405 56 10.99 -00 25 00.5          20.1 GVEB035Z99
     K22A08B KC2022 01 11.99162005 56 10.60 -00 25 04.9          20.0 GVEB035Z99
     K22A08B KC2022 01 13.28417 05 53 16.05 -00 59 54.1          20.4 GVEB035291
     K22A08B KC2022 01 13.29018 05 53 15.24 -01 00 03.6          20.4 GVEB035291
     K22A08B KC2022 01 13.29626 05 53 14.41 -01 00 13.5          20.8 GVEB035291
     K22A08B 2C2022 01 15.88580605 47 30.62 -02 08 40.7          19.4 GVEB035Z84
     K22A08B 2C2022 01 15.89356205 47 29.61 -02 08 53.3          19.6 GVEB035Z84
     K22A08B 2C2022 01 15.90131805 47 28.64 -02 09 05.7          19.2 GVEB035Z84
     K22A08B 2C2022 01 15.90907205 47 27.58 -02 09 18.3          20.1 GVEB035Z84
     K22A08B 2C2022 01 15.91721605 47 26.48 -02 09 30.7          19.7 GVEB035Z84
     K22A08B KC2022 01 18.79687505 41 15.12 -03 23 12.5          19.9 GVEB035587
     K22A08B KC2022 01 18.79794005 41 14.99 -03 23 13.3          20.2 GVEB035587
     K22A08B KC2022 01 19.81233405 39 07.33 -03 48 29.8          19.9 GVEB035L06
     K22A08B KC2022 01 19.83201005 39 04.89 -03 48 59.5          20.1 GVEB035L06
     K22A08B KC2022 01 19.83482205 39 04.55 -03 49 03.6          20.4 GVEB035L06
     K22A08B KC2022 01 19.84185205 39 03.65 -03 49 13.9          19.7 GVEB035L06
     K22A08B KC2022 01 21.12084 05 36 25.45 -04 20 32.4          20.4 GVEB035H36
     K22A08B KC2022 01 21.13014 05 36 24.27 -04 20 45.0          21.1 GVEB035H36
     K22A08B KC2022 01 21.13942 05 36 23.11 -04 20 58.6          20.5 GVEB035H36
     K22A08B KC2022 01 21.14871 05 36 22.01 -04 21 12.2          20.2 GVEB035H36
     K22A08B KC2022 01 21.82310 05 34 59.81 -04 37 30.2          20.3 VvEB035A77
     K22A08B KC2022 01 21.86940 05 34 54.12 -04 38 35.8          20.8 VvEB035A77
     K22A08B KC2022 01 23.75196 05 31 10.05 -05 22 59.0          19.7 GVEB035104
     K22A08B KC2022 01 23.76269 05 31 08.80 -05 23 14.5          20.2 GVEB035104
     K22A08B KC2022 01 23.77362 05 31 07.50 -05 23 29.5          19.9 GVEB035104
     K22A08B KC2022 01 24.88850705 28 58.08 -05 49 06.6                VEB035C95
     K22A08B KC2022 01 24.90759805 28 55.85 -05 49 33.0          21.6 GVEB035C95

Observer details:
104 San Marcello Pistoiese.  Observers P. Bacci, M. Maestripieri.  Measurers
    P. Bacci, L. Tesi, G. Fagioli.  0.60-m reflector + CCD.
204 Schiaparelli Observatory.  Observer L. Buzzi.  0.84-m f/3.5 reflector +
    CCD.
291 LPL/Spacewatch II.  Observer R. A. Mastaler.  1.8-m f/2.7 reflector + CCD.
587 Sormano.  Observers A. Carcano, E. Colzani, G. Ventre.  Measurer P.
    Sicoli.  0.5-m f/6.8 reflector + CCD.
654 Table Mountain Observatory, Wrightwood-PHMC.  Observers N. Evans, P. Choi,
    N. Saini, C. Zhai, R. Trahan, M. Shao.  1.0-m reflector + CCD.
691 Steward Observatory, Kitt Peak-Spacewatch.  Observer T. H. Bressi.  0.9-m
    f/3 reflector + CCD.
734 Farpoint Observatory, Eskridge.  Observers G. Hug, D. Cromer, D. Goodin,
    R. Valentine.  Measurer D. Cromer.  0.7-m reflector + CCD.
858 Tebbutt Observatory, Edgewood.  Observer F. B. Zoltowski.  0.51-m Schmidt-
    Cassegrain + CCD.
A77 Observatoire Chante-Perdrix, Dauban.  Observer F. Kugel.  0.4-m f/2.8
    reflector + CCD.
C95 SATINO Remote Observatory, Haute Provence.  Observer J. Jahn.  0.60-m
    f/3.2 Newtonian reflector + CCD.
F52 Pan-STARRS 2, Haleakala.  Observers J. Bulger, T. Lowe, A. Schultz, I.
    Smith, K. Chambers, T. Dukes.  Measurers K. Chambers, S. Chastel, T. de
    Boer, J. Fairlamb, H. Gao, M. Huber, C.-C. Lin, E. Magnier, Y.
    Ramanjooloo, R. Wainscoat, R. Weryk.  1.8-m Ritchey-Chretien + CCD.
G96 Mt. Lemmon Survey.  Observer G. J. Leonard.  Measurers B. Gray, D. Rankin,
    F. C. Shelly.  1.5-m reflector + 10K CCD.
H36 Sandlot Observatory, Scranton.  Observer G. Hug.  0.56-m reflector + CCD.
I93 St Pardon de Conques.  Observer F. Losse.  0.40-m f/3.7 reflector + CCD.
L01 Visnjan Observatory, Tican.  Observer K. Korlevic.  1.0-m f/2.9 reflector
    + CCD.
L06 Sormano 2 Observatory, Bellagio Via Lattea.  Observer G. Ventre.  Measurer
    P. Sicoli.  0.36-m Schmidt-Cassegrain + CCD.
L80 SpringBok Observatory, Tivoli.  Observers R. Reszelewski, M. Zolnowski, M.
    Gedek, K. Zukowski, T. Santana-Ros.  Measurer R. Reszelewski.  0.36-m
    f/2.2 reflector.
P93 Space Tracking and Communications Center, JAXA.  Observers S. Urakawa, T.
    Nimura.  1.0-m f/3.0 reflector + CCD.
Z84 Calar Alto-Schmidt.  Observers E. Schwab, M. Schwab, T. Schwab.  Measurers
    E. Schwab, M. Schwab, T. Schwab, D. Koschny, M. Micheli, E. Petrescu.
    0.8-m f/3 Schmidt + CCD.
Z99 Clixby Observatory, Cleethorpes.  Observer A. Mickleburgh.  0.36-m f/8
    Schmidt-Cassegrain + CCD.

Orbital elements:
2022 AB8                                                                        
Epoch 2022 Jan. 21.0 TT = JDT 2459600.5                 Veres                   
M 359.82966              (2000.0)            P               Q                  
n   0.00139881     Peri.  260.55492     -0.26529293     +0.03493330             
a  79.1825579      Node   274.47332     +0.51121026     -0.84221408             
e   0.9788235      Incl.   75.12294     -0.81748623     -0.53801033             
P 705              H   16.98          G   0.15           U   5                  
Residuals in seconds of arc
211129 G96  0.1-  0.0     220110 734  0.8-  0.4+    220115 Z84  0.5+  0.2-
211129 G96  0.1+  0.0     220110 734  0.1-  0.1-    220115 Z84  0.2+  0.6-
220108 F52  0.1-  0.0     220110 734  0.3-  0.1+    220115 Z84  0.1-  0.3-
220108 F52  0.0   0.0     220110 654  0.1+  0.0     220118 587 (0.9-  1.1-)
220108 F52  0.0   0.1+    220110 654  0.1+  0.3-    220118 587  0.8-  0.3-
220108 F52  0.0   0.1+    220110 654  0.1-  0.2-    220119 L06  0.7-  0.2-
220108 F52  0.0   0.0     220111 858  0.0   0.2+    220119 L06  0.0   0.7-
220108 F52  0.0   0.0     220111 858  0.4-  0.2+    220119 L06  0.3+  0.7-
220108 P93  0.3-  0.3-    220111 I93  0.0   0.0     220119 L06  0.1+  0.5-
220108 P93  0.1-  0.2-    220111 I93  0.0   0.8+    220121 H36  0.1+  0.4-
220108 P93  0.2-  0.4-    220111 L80  0.8+  1.0+    220121 H36  0.2-  0.5+
220108 P93  0.3+  0.1-    220111 I93  0.3+  0.0     220121 H36  0.3-  0.4+
220108 L01  0.5-  0.1+    220111 L80  0.0   1.2+    220121 H36  0.5+  0.3+
220108 L01  0.4-  1.0+    220111 204  0.1+  0.2+    220121 A77 (1.3-  1.9-)
220108 L01  0.3-  1.1+    220111 204  0.6+  0.3-    220121 A77  1.3-  0.8-
220108 L01  0.5-  0.1+    220111 Z99  0.9+  0.1+    220123 104  0.1-  0.4+
220108 L01  0.4-  0.3+    220111 Z99  0.6+  0.1+    220123 104  0.2+  0.1-
220109 691  0.5-  0.1-    220113 291  0.1-  0.2-    220123 104  0.1+  0.1+
220109 691  0.2-  0.3+    220113 291  0.1+  0.0     220124 C95  0.5+  0.3+
220109 691  0.0   0.0     220113 291  0.1+  0.1-    220124 C95  0.4+  0.1-
220109 F52  0.0   0.0     220115 Z84  0.7-  0.6+
220109 F52  0.0   0.0     220115 Z84  0.4-  0.1+

Ephemeris:
2022 AB8                 a,e,i = 79.18, 0.98, 75                 q = 1.6768
Date    TT    R. A. (2000) Decl.     Delta      r    Elong.  Phase     V
2021 12 26    06 34 53.7 +07 29 45   1.5457  2.5046   163.6     6.4    20.4
...
2022 01 10    06 00 42.5 +00 29 27   1.4705  2.3758   150.4    11.8    20.4
...
2022 01 18    05 42 56.6 -03 02 59   1.4729  2.3089   139.2    16.2    20.5
...
2022 01 24    05 30 41.0 -05 28 39   1.4911  2.2597   130.7    19.3    20.6
2022 01 25    05 28 45.4 -05 51 33   1.4953  2.2516   129.3    19.8    20.6
2022 01 26    05 26 52.0 -06 14 03   1.4998  2.2435   127.9    20.3    20.6
...
2022 02 01    05 16 22.2 -08 20 14   1.5327  2.1957   119.8    22.9    20.7
...
2022 02 09    05 04 48.6 -10 45 22   1.5886  2.1337   109.7    25.8    20.8
...
2022 02 24    04 50 50.7 -14 17 47   1.7113  2.0239    93.2    29.2    21.0

M. P. C. Staff               (C) Copyright 2022 MPC           M.P.E.C. 2022-B35
 Read MPEC 2022-B34
 Read MPEC 2022-B36 MPEC number:  

Enter an MPEC number in one of the following forms:

1997-B01 (the full form)
J97B01 (the packed version of the full form)
B01 (the abbreviated form)

Home
About

Contact
Privacy

The Minor Planet Center is hosted by the Center for Astrophysics | Harvard & Smithsonian.The Minor Planet Center is funded by NASA.
